     3.02           N: GNSS NAV DATA    G: GPS              RINEX VERSION / TYPE
Spider v7.5.1.8670  SMO                 20211106 080544 UTC PGM / RUN BY / DATE
GPSA   1.6764D-08 -7.4506D-09 -1.1921D-07  1.1921D-07       IONOSPHERIC CORR
GPSB   1.1878D+05 -6.5536D+04 -3.2768D+05  3.2768D+05       IONOSPHERIC CORR
GPUT  9.3132257462D-10 0.000000000D+00 147456 2183          TIME SYSTEM CORR
    18    18  1929     7                                    LEAP SECONDS
                                                            END OF HEADER
G16 2021 11 05 18 00 00-4.191044718027D-04-6.366462912410D-12 0.000000000000D+00
     3.100000000000D+01 1.537187500000D+02 4.294107291969D-09-2.695764723341D+00
     7.830560207367D-06 1.237986201886D-02 4.796311259270D-06 5.153788749695D+03
     4.968000000000D+05 4.470348358154D-08-2.051182264660D+00-2.197921276093D-07
     9.715614744180D-01 2.929375000000D+02 6.815644820564D-01-8.097122972117D-09
     4.168030642848D-10 1.000000000000D+00 2.182000000000D+03 0.000000000000D+00
     2.000000000000D+00 0.000000000000D+00-1.024454832077D-08 3.100000000000D+01
     4.895400000000D+05                   
G17 2021 11 06 00 00 00 5.295979790390D-04 5.456968210638D-12 0.000000000000D+00
     3.400000000000D+01-7.431250000000D+01 4.550189558472D-09-3.662945850912D-01
    -3.868713974953D-06 1.373013050761D-02 9.145587682724D-07 5.153691198349D+03
     5.184000000000D+05-1.937150955200D-07-1.032479184091D+00 1.117587089539D-07
     9.805963511455D-01 3.755625000000D+02-1.541886293319D+00-8.707505827488D-09
    -2.717970293276D-10 1.000000000000D+00 2.182000000000D+03 0.000000000000D+00
     2.800000000000D+00 0.000000000000D+00-1.117587089539D-08 3.400000000000D+01
     5.111400000000D+05                   
G18 2021 11 06 08 00 00 2.998020499945D-04-5.684341886081D-12 0.000000000000D+00
     1.130000000000D+02-1.425312500000D+02 4.101599504480D-09 1.819924672082D+00
    -7.260590791702D-06 2.066959277727D-03 1.122988760471D-05 5.153651603699D+03
     5.472000000000D+05 8.009374141693D-08-2.621718603960D-02 5.587935447693D-08
     9.701312364657D-01 1.673125000000D+02 3.033325322518D+00-7.872113627627D-09
    -1.042900557580D-10 1.000000000000D+00 2.182000000000D+03 0.000000000000D+00
     2.000000000000D+00 0.000000000000D+00-8.381903171539D-09 1.130000000000D+02
     5.399400000000D+05                   
G19 2021 11 06 02 00 00 7.547996938229D-05 5.002220859751D-12 0.000000000000D+00
     5.000000000000D+01-9.081250000000D+01 4.485186888559D-09 3.051818327432D+00
    -4.613772034645D-06 8.972893818282D-03 6.128102540970D-07 5.153663074493D+03
     5.256000000000D+05 1.098960638046D-07-9.875397436342D-01 1.750886440277D-07
     9.792925517399D-01 3.767812500000D+02 1.968447157977D+00-8.349633873195D-09
    -3.439429019370D-10 1.000000000000D+00 2.182000000000D+03 0.000000000000D+00
     2.000000000000D+00 0.000000000000D+00-1.583248376846D-08 5.000000000000D+01
     5.183400000000D+05                   
G20 2021 11 06 04 00 00 5.182707682252D-04-2.273736754432D-13 0.000000000000D+00
     7.100000000000D+01 1.028125000000D+01 4.978421674906D-09 6.251586531215D-01
     5.420297384262D-07 5.517059238628D-03 1.076236367226D-05 5.153679340363D+03
     5.328000000000D+05 1.303851604462D-07 8.489016232000D-01 9.313225746155D-08
     9.403060248459D-01 1.618750000000D+02 3.023326997202D+00-8.193913103582D-09
     6.900287563560D-10 1.000000000000D+00 2.182000000000D+03 0.000000000000D+00
     2.000000000000D+00 0.000000000000D+00-8.381903171539D-09 7.100000000000D+01
     5.255400000000D+05                   
G21 2021 11 06 08 00 00 1.501538790762D-04 1.136868377216D-12 0.000000000000D+00
     4.200000000000D+01-1.593437500000D+02 4.225533256630D-09-2.344783471700D+00
    -7.774680852890D-06 2.417125483043D-02 9.370967745781D-06 5.153629232407D+03
     5.472000000000D+05 1.080334186554D-07-1.236132875953D-01 4.135072231293D-07
     9.590104594579D-01 1.905625000000D+02-1.062521538104D+00-7.608173646645D-09
    -1.246480557660D-10 1.000000000000D+00 2.182000000000D+03 0.000000000000D+00
     2.000000000000D+00 0.000000000000D+00-1.024454832077D-08 4.200000000000D+01
     5.399400000000D+05                   
G22 2021 11 05 20 00 00-4.718885757029D-04 9.094947017729D-12 0.000000000000D+00
     1.700000000000D+01 1.937500000000D+01 5.037352757142D-09 2.668225760096D+00
     8.642673492432D-07 6.732096313499D-03 1.003034412861D-05 5.153689050674D+03
     5.040000000000D+05 1.508742570877D-07 8.951294468316D-01 1.303851604462D-07
     9.369491691337D-01 1.702500000000D+02-8.813878081972D-01-8.112837512897D-09
     7.639603949450D-10 1.000000000000D+00 2.182000000000D+03 0.000000000000D+00
     2.000000000000D+00 0.000000000000D+00-1.769512891769D-08 1.700000000000D+01
     4.967400000000D+05                   
G23 2021 11 06 08 00 00 3.624800592661D-05-4.433786671143D-12 0.000000000000D+00
     1.330000000000D+02 1.228125000000D+01 4.517330953746D-09 1.062221290260D+00
     5.736947059631D-07 1.859696465544D-03 9.924173355103D-06 5.153680694580D+03
     5.472000000000D+05 1.117587089539D-08 9.728213511712D-01 2.793967723846D-08
     9.659859864051D-01 1.892187500000D+02 2.776500655917D+00-7.913186550468D-09
     6.160971177671D-10 1.000000000000D+00 2.182000000000D+03 0.000000000000D+00
     2.000000000000D+00 0.000000000000D+00-8.381903171539D-09 3.890000000000D+02
     5.399400000000D+05                   
G24 2021 11 06 08 00 00 2.638618461788D-04 4.547473508865D-12 0.000000000000D+00
     8.100000000000D+01 1.625000000000D+01 4.778770268388D-09 1.914040346617D+00
     7.767230272293D-07 1.192359125707D-02 1.192279160023D-05 5.153713418961D+03
     5.472000000000D+05-2.216547727585D-07 3.020318528116D+00-9.872019290924D-08
     9.350902142608D-01 1.376250000000D+02 7.742536900425D-01-8.054620970199D-09
    -5.818099335642D-10 1.000000000000D+00 2.182000000000D+03 0.000000000000D+00
     2.000000000000D+00 0.000000000000D+00 2.328306436539D-09 8.100000000000D+01
     5.399400000000D+05                   
G25 2021 11 06 08 00 00 2.362085506320D-04 6.025402399246D-12 0.000000000000D+00
     4.400000000000D+01 1.515312500000D+02 4.573761813731D-09 6.058650940845D-02
     7.903203368187D-06 9.979531751014D-03 5.992129445076D-06 5.153762153625D+03
     5.472000000000D+05-1.490116119385D-08-2.145802392848D+00 2.216547727585D-07
     9.590624559552D-01 2.684375000000D+02 9.619833401360D-01-8.354276381795D-09
     3.414427907078D-10 1.000000000000D+00 2.182000000000D+03 0.000000000000D+00
     2.000000000000D+00 0.000000000000D+00 5.587935447693D-09 4.400000000000D+01
     5.399400000000D+05                   
G26 2021 11 06 08 00 00 1.525282859802D-04 3.865352482535D-12 0.000000000000D+00
     4.500000000000D+01 1.671875000000D+02 4.868417224912D-09-5.927395809542D-01
     8.700415492058D-06 6.388637004420D-03 6.690621376038D-06 5.153656036377D+03
     5.472000000000D+05 1.490116119385D-07-2.190926038098D+00 9.313225746155D-09
     9.399772193785D-01 2.373750000000D+02 3.033609567501D-01-8.469995371740D-09
     3.242992263619D-10 1.000000000000D+00 2.182000000000D+03 0.000000000000D+00
     2.000000000000D+00 0.000000000000D+00 6.984919309616D-09 4.500000000000D+01
     5.399400000000D+05                   
G27 2021 11 05 16 00 00-2.154321409762D-04-4.774847184308D-12 0.000000000000D+00
     2.500000000000D+01-6.350000000000D+01 4.538760478567D-09 1.670028020422D+00
    -3.432855010033D-06 9.652522043325D-03 5.364418029785D-07 5.153643474579D+03
     4.896000000000D+05-1.061707735062D-07-1.094054923093D+00 8.754432201385D-08
     9.742353756025D-01 3.777187500000D+02 6.293837507138D-01-8.509283055957D-09
    -2.589393699459D-10 1.000000000000D+00 2.182000000000D+03 0.000000000000D+00
     2.000000000000D+00 0.000000000000D+00 1.862645149231D-09 2.500000000000D+01
     4.823400000000D+05                   
G28 2021 09 22 22 00 00 4.961392842233D-04-7.162270776462D-12 0.000000000000D+00
     8.800000000000D+01 2.125000000000D+00 4.596977021265D-09-2.504640308939D+00
     2.421438694000D-07 1.747486414388D-02 2.415850758553D-06 5.153714984894D+03
     3.384000000000D+05 1.545995473862D-07-1.294277280621D+00 1.247972249985D-07
     9.708767790177D-01 3.373437500000D+02-1.334465198266D+00-8.081765479062D-09
    -7.071723068242D-11 1.000000000000D+00 2.176000000000D+03 0.000000000000D+00
     4.000000000000D+00 1.000000000000D+00-1.117587089539D-08 8.800000000000D+01
     3.311400000000D+05 1.000000000000D+00
G29 2021 11 06 06 00 00-4.366827197373D-04-5.343281372916D-12 0.000000000000D+00
     2.800000000000D+01-7.303125000000D+01 4.522331398249D-09 2.781055120737D+00
    -3.689900040627D-06 1.854332862422D-03 4.246830940247D-07 5.153557594299D+03
     5.400000000000D+05-5.587935447693D-09-1.019863834382D+00 8.381903171539D-08
     9.825518834812D-01 3.843750000000D+02 2.377039073013D+00-8.457138100937D-09
    -1.892935946879D-10 1.000000000000D+00 2.182000000000D+03 0.000000000000D+00
     2.000000000000D+00 0.000000000000D+00-1.024454832077D-08 2.800000000000D+01
     5.327400000000D+05                   
G30 2021 11 06 02 00 00-4.888917319477D-04-3.296918293927D-12 0.000000000000D+00
     5.100000000000D+01 4.884375000000D+01 4.763769823057D-09-2.276059105969D+00
     2.263113856316D-06 5.339141818695D-03 1.293420791626D-05 5.153631305695D+03
     5.256000000000D+05 7.078051567078D-08 3.116144593805D+00-1.341104507446D-07
     9.368775285725D-01 1.194375000000D+02-2.740365062313D+00-7.959974013261D-09
    -4.321608626512D-10 1.000000000000D+00 2.182000000000D+03 0.000000000000D+00
     2.000000000000D+00 0.000000000000D+00 3.725290298462D-09 5.100000000000D+01
     5.183400000000D+05                   
